QIANFAN-49              
1 62250U 24232P   25281.81163731  .00000114  00000+0  15767-3 0  9990
2 62250  89.0012  47.7733 0014638  29.8342 330.3641 13.50977042 59077
QIANFAN-50              
1 62251U 24232Q   25281.83633903  .00000131  00000+0  18435-3 0  9990
2 62251  89.0018  47.7754 0016326  30.4084 329.8011 13.50977658 59105
QIANFAN-51              
1 62252U 24232R   25281.81986727  .00000117  00000+0  16260-3 0  9992
2 62252  89.0012  47.7749 0013951  35.0519 325.1548 13.50974465 59094
QIANFAN-52              
1 62253U 24232S   25281.84863833  .00000130  00000+0  18262-3 0  9997
2 62253  89.0008  47.6481 0015714  26.5875 333.6079 13.50977095 59186
QIANFAN-53              
1 62254U 24232T   25281.82813126  .00000139  00000+0  19697-3 0  9998
2 62254  89.0015  47.7497 0014631  28.2258 331.9683 13.50972817 59149
QIANFAN-54              
1 62255U 24232U   25281.79516412  .00000128  00000+0  18029-3 0  9999
2 62255  89.0007  47.4372 0003700  81.1938 278.9632 13.50974920 90649
QIANFAN-55              
1 62785U 25016A   25281.82118231  .00000062  00000+0  76665-4 0  9997
2 62785  88.9745 109.9167 0017433 170.4760 189.6725 13.50966924 38427
QIANFAN-56              
1 62786U 25016B   25281.83768937  .00000055  00000+0  66164-4 0  9998
2 62786  88.9720 109.7690 0016025 172.3445 187.7954 13.50975117 38479
